
302 
FTUS45 KPUB 121700 RRA
TAFCOS
TAF
KCOS 121202Z 1218/1318 16008KT P6SM SCT100
     FM130200 36010KT P6SM SCT100=


307 
FTUS45 KPUB 121700 RRA
TAFALS
TAF
KALS 121202Z 1218/1318 VRB06KT P6SM SCT150
     FM122000 26010KT P6SM SCT150
     FM130200 VRB06KT P6SM SCT200=


308 
FTUS45 KPUB 121700 RRA
TAFPUB
TAF
KPUB 121202Z 1218/1318 VRB06KT P6SM SCT110
     FM122000 12010KT P6SM SCT110
     FM130200 VRB06KT P6SM SCT150=

