METAR KOMA 151852Z 32010KT 10SM FEW250 26/15 A3008 RMK AO2 SLP179 T02610150