TAF
KOMA 031120Z 0312/0412 01009KT P6SM BKN150 
      FM040000 03004KT P6SM OVC100= 
